NORAD_CAT_ID,OBJECT_NAME,OBJECT_TYPE,EPOCH,MEAN_MOTION,ECCENTRICITY,INCLINATION,RA_OF_ASC_NODE,ARG_OF_PERICENTER,MEAN_ANOMALY,BSTAR,MEAN_MOTION_DOT,MEAN_MOTION_DDOT,TLE_LINE0,TLE_LINE1,TLE_LINE2,SEMIMAJOR_AXIS,PERIOD,APOGEE,PERIGEE,DECAYED
52541.0,STARLINK-3845,PAYLOAD,2022-10-16 07:22:25,15.0884179,0.0001973,53.2146,302.4171,38.7719,321.3414,2.7486e-05,1.49e-06,0.0,0 STARLINK-3845,1 52541U 22051J   22289.30723551  .00000149  00000-0  27486-4 0  9991,2 52541  53.2146 302.4171 0001973  38.7719 321.3414 15.08841790 24112,6917.875,95.437,541.105,538.375,0.0
52541.0,STARLINK-3845,PAYLOAD,2022-10-17 10:23:58,15.08838182,0.0002026999999999,53.2148,297.3618,48.0641,312.0524,8.750800000000001e-06,-1.49e-06,0.0,0 STARLINK-3845,1 52541U 22051J   22290.43331809 -.00000149  00000-0  87508-5 0  9991,2 52541  53.2148 297.3618 0002027  48.0641 312.0524 15.08838182 24289,6917.886,95.438,541.153,538.349,0.0
52541.0,STARLINK-3845,PAYLOAD,2022-10-18 10:14:45,15.08838528,0.0001921,53.2148,292.9005,40.2834,319.8301,3.9194e-05,3.36e-06,0.0,0 STARLINK-3845,1 52541U 22051J   22291.42691796  .00000336  00000-0  39194-4 0  9999,2 52541  53.2148 292.9005 0001921  40.2834 319.8301 15.08838528 24439,6917.885,95.438,541.0790000000002,538.4209999999998,0.0
52541.0,STARLINK-3845,PAYLOAD,2022-10-19 06:54:47,15.08845102,0.0002621,53.2149,289.0345,49.3217,310.8003,-0.00013867,-2.495e-05,0.0,0 STARLINK-3845,1 52541U 22051J   22292.28804666 -.00002495  00000-0 -13867-3 0  9994,2 52541  53.2149 289.0345 0002621  49.3217 310.8003 15.08845102 24567,6917.865,95.437,541.543,537.9169999999998,0.0
52541.0,STARLINK-3845,PAYLOAD,2022-10-20 05:10:10,15.08847658,0.0001814,53.2155,284.8697,48.604,311.5108,6.5516e-05,7.55e-06,0.0,0 STARLINK-3845,1 52541U 22051J   22293.21539533  .00000755  00000-0  65516-4 0  9990,2 52541  53.2155 284.8697 0001814  48.6040 311.5108 15.08847658 24771,6917.857,95.437,540.977,538.467,0.0
52541.0,STARLINK-3845,PAYLOAD,2022-10-20 08:20:56,15.08840818,0.000185,53.215,284.276,47.4886,312.6263,1.7735999999999998e-05,-6e-08,0.0,0 STARLINK-3845,1 52541U 22051J   22293.34788102 -.00000006  00000-0  17736-4 0  9993,2 52541  53.2150 284.2760 0001850  47.4886 312.6263 15.08840818 24726,6917.878000000002,95.438,541.023,538.4630000000002,0.0
52541.0,STARLINK-3845,PAYLOAD,2022-10-21 09:47:07,15.08833336,0.0002004,53.2155,279.5176,47.2787,312.8373,4.5614e-05,4.38e-06,0.0,0 STARLINK-3845,1 52541U 22051J   22294.40772937  .00000438  00000-0  45614-4 0  9994,2 52541  53.2155 279.5176 0002004  47.2787 312.8373 15.08833336 24955,6917.901,95.438,541.1519999999998,538.379,0.0
52541.0,STARLINK-3845,PAYLOAD,2022-10-21 16:08:40,15.08839547,0.0002019,53.2157,278.3286,48.7287,311.3879,5.621600000000001e-05,6.07e-06,0.0,0 STARLINK-3845,1 52541U 22051J   22294.67268541  .00000607  00000-0  56216-4 0  9992,2 52541  53.2157 278.3286 0002019  48.7287 311.3879 15.08839547 24925,6917.882,95.438,541.143,538.35,0.0
52541.0,STARLINK-3845,PAYLOAD,2022-10-22 04:51:44,15.0885062,0.0001911999999999,53.2154,275.9494,51.5266,308.5897,7.1221e-05,8.46e-06,0.0,0 STARLINK-3845,1 52541U 22051J   22295.20259725  .00000846  00000-0  71221-4 0  9994,2 52541  53.2154 275.9494 0001912  51.5266 308.5897 15.08850620 25076,6917.848000000001,95.437,541.036,538.39,0.0
52541.0,STARLINK-3845,PAYLOAD,2022-10-22 06:27:07,15.08847031,0.0001915,53.2154,275.6495,52.0501,308.0664,5.1939e-05,5.39e-06,0.0,0 STARLINK-3845,1 52541U 22051J   22295.26883995  .00000539  00000-0  51939-4 0  9995,2 52541  53.2154 275.6495 0001915  52.0501 308.0664 15.08847031 25018,6917.859,95.437,541.049,538.399,0.0
52541.0,STARLINK-3845,PAYLOAD,2022-10-22 15:59:26,15.08842081,0.0002006999999999,53.2154,273.865,51.2285,308.8886,1.5124e-05,-4.8e-07,0.0,0 STARLINK-3845,1 52541U 22051J   22295.66628337 -.00000048  00000-0  15124-4 0  9998,2 52541  53.2154 273.8650 0002007  51.2285 308.8886 15.08842081 25074,6917.874,95.437,541.127,538.351,0.0
52541.0,STARLINK-3845,PAYLOAD,2022-10-23 04:42:31,15.08851992,0.0001807,53.2145,271.4894,46.2978,313.8163,0.00021782,3.181e-05,0.0,0 STARLINK-3845,1 52541U 22051J   22296.19619255  .00003181  00000-0  21782-3 0  9992,2 52541  53.2145 271.4894 0001807  46.2978 313.8163 15.08851992 25220,6917.844,95.437,540.9590000000002,538.4590000000002,0.0
52541.0,STARLINK-3845,PAYLOAD,2022-10-23 07:53:17,15.08849476,0.0001929,53.2144,270.8943,48.0097,312.1059,0.00022364,3.274e-05,0.0,0 STARLINK-3845,1 52541U 22051J   22296.32867627  .00003274  00000-0  22364-3 0  9995,2 52541  53.2144 270.8943 0001929  48.0097 312.1059 15.08849476 25178,6917.851,95.437,541.0509999999998,538.382,0.0
52541.0,STARLINK-3845,PAYLOAD,2022-10-23 15:50:13,15.08848191,0.0001955,53.2142,269.4074,48.1024,312.0134,0.00016879,2.4e-05,0.0,0 STARLINK-3845,1 52541U 22051J   22296.65987576  .00002400  00000-0  16879-3 0  9991,2 52541  53.2142 269.4074 0001955  48.1024 312.0134 15.08848191 25227,6917.855,95.437,541.073,538.368,0.0
52541.0,STARLINK-3845,PAYLOAD,2022-10-24 07:44:04,15.08838462,0.0001839,53.215,266.433,59.9584,300.159,-0.00019266,-3.353e-05,0.0,0 STARLINK-3845,1 52541U 22051J   22297.32227532 -.00003353  00000-0 -19266-3 0  9998,2 52541  53.2150 266.4330 0001839  59.9584 300.1590 15.08838462 25325,6917.885,95.438,541.0219999999998,538.4780000000002,0.0
52541.0,STARLINK-3845,PAYLOAD,2022-10-25 04:24:06,15.08823355,0.0001819,53.2142,262.568,43.0475,317.0659,-0.00023727,-4.061e-05,0.0,0 STARLINK-3845,1 52541U 22051J   22298.18340874 -.00004061  00000-0 -23727-3 0  9992,2 52541  53.2142 262.5680 0001819  43.0475 317.0659 15.08823355 25522,6917.931,95.439,541.055,538.538,0.0
52541.0,STARLINK-3845,PAYLOAD,2022-10-25 07:34:52,15.08823923,0.0001896999999999,53.2144,261.9731,44.3624,315.752,-0.00015563,-2.763e-05,0.0,0 STARLINK-3845,1 52541U 22051J   22298.31589005 -.00002763  00000-0 -15563-3 0  9994,2 52541  53.2144 261.9731 0001897  44.3624 315.7520 15.08823923 25477,6917.93,95.439,541.107,538.482,0.0
52541.0,STARLINK-3845,PAYLOAD,2022-10-26 04:14:53,15.08835334,0.0001928,53.2147,258.107,46.8394,313.2759,4.8211e-05,4.79e-06,0.0,0 STARLINK-3845,1 52541U 22051J   22299.17701164  .00000479  00000-0  48211-4 0  9998,2 52541  53.2147 258.1070 0001928  46.8394 313.2759 15.08835334 25678,6917.895,95.438,541.0930000000002,538.4259999999998,0.0
52541.0,STARLINK-3845,PAYLOAD,2022-10-26 07:25:40,15.08835633,0.0001836,53.2148,257.5118,46.0626,314.0517,0.00021499,3.135e-05,0.0,0 STARLINK-3845,1 52541U 22051J   22299.30949308  .00003135  00000-0  21499-3 0  9997,2 52541  53.2148 257.5118 0001836  46.0626 314.0517 15.08835633 25621,6917.894,95.438,541.029,538.489,0.0
52541.0,STARLINK-3845,PAYLOAD,2022-10-26 13:47:12,15.08841036,0.0001831,53.2149,256.3223,45.0737,315.0404,0.00044666,6.828e-05,0.0,0 STARLINK-3845,1 52541U 22051J   22299.57445468  .00006828  00000-0  44666-3 0  9997,2 52541  53.2149 256.3223 0001831  45.0737 315.0404 15.08841036 25667,6917.877,95.437,541.009,538.476,0.0
52541.0,STARLINK-3845,PAYLOAD,2022-10-27 05:41:04,15.08846906,0.000183,53.2152,253.3485,45.7113,314.4029,0.00033222,5.004e-05,0.0,0 STARLINK-3845,1 52541U 22051J   22300.23685464  .00005004  00000-0  33222-3 0  9996,2 52541  53.2152 253.3485 0001830  45.7113 314.4029 15.08846906 25838,6917.859,95.437,540.99,538.4580000000002,0.0
52541.0,STARLINK-3845,PAYLOAD,2022-10-27 07:16:27,15.08848225,0.0001828,53.2152,253.0511,45.5464,314.5678,0.00034613,5.226e-05,0.0,0 STARLINK-3845,1 52541U 22051J   22300.30309415  .00005226  00000-0  34613-3 0  9994,2 52541  53.2152 253.0511 0001828  45.5464 314.5678 15.08848225 25779,6917.855,95.437,540.985,538.456,0.0
52541.0,STARLINK-3845,PAYLOAD,2022-10-27 13:37:59,15.08851731,0.0001824,53.2152,251.8616,45.9192,314.195,0.00035696,5.399e-05,0.0,0 STARLINK-3845,1 52541U 22051J   22300.56805213  .00005399  00000-0  35696-3 0  9992,2 52541  53.2152 251.8616 0001824  45.9192 314.1950 15.08851731 25819,6917.845,95.437,540.971,538.448,0.0
52541.0,STARLINK-3845,PAYLOAD,2022-10-28 02:21:04,15.08856043,0.000182,53.2149,249.4829,46.1799,313.9343,0.00030385,4.553e-05,0.0,0 STARLINK-3845,1 52541U 22051J   22301.09796698  .00004553  00000-0  30385-3 0  9998,2 52541  53.2149 249.4829 0001820  46.1799 313.9343 15.08856043 25898,6917.831,95.437,540.955,538.437,0.0
52541.0,STARLINK-3845,PAYLOAD,2022-10-28 19:50:18,15.08854177,0.0001959,53.2151,246.213,51.5289,308.5879,0.00015213,2.135e-05,0.0,0 STARLINK-3845,1 52541U 22051J   22301.82660121  .00002135  00000-0  15213-3 0  9997,2 52541  53.2151 246.2130 0001959  51.5289 308.5879 15.08854177 26002,6917.837,95.437,541.057,538.347,0.0
52541.0,STARLINK-3845,PAYLOAD,2022-10-28 21:25:41,15.08846236,0.0001786,53.2152,245.9138,47.6903,312.4240000000001,1.6100000000000002e-05,-3.2e-07,0.0,0 STARLINK-3845,1 52541U 22051J   22301.89284358 -.00000032  00000-0  16100-4 0  9990,2 52541  53.2152 245.9138 0001786  47.6903 312.4240 15.08846236 26085,6917.861,95.437,540.962,538.491,0.0
52541.0,STARLINK-3845,PAYLOAD,2022-10-29 05:22:37,15.08844171,0.0001916,53.216,244.4276,52.8807,307.236,-2.5542e-05,-6.95e-06,0.0,0 STARLINK-3845,1 52541U 22051J   22302.22404366 -.00000695  00000-0 -25542-4 0  9997,2 52541  53.2160 244.4276 0001916  52.8807 307.2360 15.08844171 26066,6917.868,95.437,541.058,538.4069999999998,0.0
52541.0,STARLINK-3845,PAYLOAD,2022-10-29 19:41:05,15.08852445,0.0001740999999999,53.2147,241.7498,53.9237,306.1916,0.00010201,1.336e-05,0.0,0 STARLINK-3845,1 52541U 22051J   22302.82019705  .00001336  00000-0  10201-3 0  9998,2 52541  53.2147 241.7498 0001741  53.9237 306.1916 15.08852445 26150,6917.842,95.437,540.9119999999998,538.503,0.0
52541.0,STARLINK-3845,PAYLOAD,2022-10-30 02:02:37,15.08851793,0.0001894,53.2149,240.5602,46.6998,313.4152,8.0662e-05,9.96e-06,0.0,0 STARLINK-3845,1 52541U 22051J   22303.08515662  .00000996  00000-0  80662-4 0  9990,2 52541  53.2149 240.5602 0001894  46.6998 313.4152 15.08851793 26190,6917.844,95.437,541.02,538.399,0.0
